{
  "norad_id": 53029,
  "name": "STARLINK-4143",
  "history": [
    {
      "epoch": "2026-04-11T11:41:53.679840Z",
      "apogee_km": 540.731425597186,
      "perigee_km": 538.7819631541097,
      "latitude_deg": 3.783894984042205e-05,
      "longitude_deg": -88.29444569755509,
      "height_km": 540.4377482797388,
      "semi_major_axis_km": 6917.893694375647,
      "eccentricity": 0.0001409,
      "inclination_deg": 53.2129,
      "raan_deg": 286.8854,
      "arg_perigee_deg": 77.3085,
      "mean_anomaly_deg": 282.8065,
      "mean_motion_rev_day": 15.08835647
    },
    {
      "epoch": "2026-04-13T05:01:55.212384Z",
      "apogee_km": 540.6766324569026,
      "perigee_km": 538.8251289445125,
      "latitude_deg": 4.583407159412591e-05,
      "longitude_deg": 2.2718562935579674,
      "height_km": 540.6267149572896,
      "semi_major_axis_km": 6917.887880700707,
      "eccentricity": 0.00013382,
      "inclination_deg": 53.217,
      "raan_deg": 279.1556,
      "arg_perigee_deg": 88.7712,
      "mean_anomaly_deg": 271.3434,
      "mean_motion_rev_day": 15.08837549
    },
    {
      "epoch": "2026-04-14T20:46:33.240864Z",
      "apogee_km": 540.6441048143497,
      "perigee_km": 538.8260880274111,
      "latitude_deg": -5.263490938613582e-05,
      "longitude_deg": 117.04600900620784,
      "height_km": 540.6523731712055,
      "semi_major_axis_km": 6917.872096420881,
      "eccentricity": 0.0001314,
      "inclination_deg": 53.2162,
      "raan_deg": 271.7205,
      "arg_perigee_deg": 91.3632,
      "mean_anomaly_deg": 268.751,
      "mean_motion_rev_day": 15.08842713
    },
    {
      "epoch": "2026-04-15T20:37:20.554752Z",
      "apogee_km": 540.4970634319952,
      "perigee_km": 538.9958827183382,
      "latitude_deg": 5.469498672728025e-05,
      "longitude_deg": 113.90940955708872,
      "height_km": 540.6825630427749,
      "semi_major_axis_km": 6917.883473075166,
      "eccentricity": 0.0001085,
      "inclination_deg": 53.2192,
      "raan_deg": 267.2603,
      "arg_perigee_deg": 93.0413,
      "mean_anomaly_deg": 267.0704,
      "mean_motion_rev_day": 15.08838991
    },
    {
      "epoch": "2026-04-16T14:06:35.200224Z",
      "apogee_km": 540.5555814556465,
      "perigee_km": 538.9409470349729,
      "latitude_deg": 1.773844200565742e-05,
      "longitude_deg": -152.39232138611226,
      "height_km": 540.7875711831255,
      "semi_major_axis_km": 6917.885264245309,
      "eccentricity": 0.0001167,
      "inclination_deg": 53.2179,
      "raan_deg": 263.9878,
      "arg_perigee_deg": 100.2216,
      "mean_anomaly_deg": 259.8908,
      "mean_motion_rev_day": 15.08838405
    },
    {
      "epoch": "2026-04-17T17:08:08.682432Z",
      "apogee_km": 540.6076187303552,
      "perigee_km": 538.9083070116749,
      "latitude_deg": 1.7690582899736456e-05,
      "longitude_deg": 156.05365394671682,
      "height_km": 540.6234973981964,
      "semi_major_axis_km": 6917.894962871014,
      "eccentricity": 0.00012282,
      "inclination_deg": 53.218,
      "raan_deg": 258.9332,
      "arg_perigee_deg": 87.9486,
      "mean_anomaly_deg": 272.1647,
      "mean_motion_rev_day": 15.08835232
    },
    {
      "epoch": "2026-04-18T16:58:55.891776Z",
      "apogee_km": 540.6194546967481,
      "perigee_km": 538.883064743558,
      "latitude_deg": -6.374029956834879e-05,
      "longitude_deg": 152.9171493466127,
      "height_km": 540.3972099133356,
      "semi_major_axis_km": 6917.888259720153,
      "eccentricity": 0.0001255,
      "inclination_deg": 53.2178,
      "raan_deg": 254.4728,
      "arg_perigee_deg": 73.2625,
      "mean_anomaly_deg": 286.8504,
      "mean_motion_rev_day": 15.08837425
    },
    {
      "epoch": "2026-04-19T13:38:56.393664Z",
      "apogee_km": 540.552537328701,
      "perigee_km": 538.9323699606584,
      "latitude_deg": -2.476120263686207e-05,
      "longitude_deg": -161.79806915653705,
      "height_km": 540.6488147557228,
      "semi_major_axis_km": 6917.879453644679,
      "eccentricity": 0.0001171,
      "inclination_deg": 53.2172,
      "raan_deg": 250.6084,
      "arg_perigee_deg": 90.7365,
      "mean_anomaly_deg": 269.3761,
      "mean_motion_rev_day": 15.08840306
    },
    {
      "epoch": "2026-04-20T15:05:06.980928Z",
      "apogee_km": 540.5724364012885,
      "perigee_km": 538.9262561663263,
      "latitude_deg": -2.109169616445218e-05,
      "longitude_deg": 170.85438737458423,
      "height_km": 540.6040155588892,
      "semi_major_axis_km": 6917.886346283807,
      "eccentricity": 0.00011898,
      "inclination_deg": 53.2151,
      "raan_deg": 245.8496,
      "arg_perigee_deg": 87.1426,
      "mean_anomaly_deg": 272.9702,
      "mean_motion_rev_day": 15.08838051
    },
    {
      "epoch": "2026-04-21T13:20:30.356160Z",
      "apogee_km": 540.6266828972393,
      "perigee_km": 538.8321883438393,
      "latitude_deg": 4.2628927261526215e-05,
      "longitude_deg": -168.06940601624984,
      "height_km": 540.5713830518981,
      "semi_major_axis_km": 6917.866435620539,
      "eccentricity": 0.0001297,
      "inclination_deg": 53.2169,
      "raan_deg": 241.6872,
      "arg_perigee_deg": 86.5629,
      "mean_anomaly_deg": 273.5512,
      "mean_motion_rev_day": 15.08844565
    },
    {
      "epoch": "2026-04-22T11:35:54.902112Z",
      "apogee_km": 540.6671295159731,
      "perigee_km": 538.8594821660563,
      "latitude_deg": -2.9762471785647886e-05,
      "longitude_deg": -146.99819202710785,
      "height_km": 540.5884258970009,
      "semi_major_axis_km": 6917.900305841014,
      "eccentricity": 0.00013065,
      "inclination_deg": 53.2177,
      "raan_deg": 237.5248,
      "arg_perigee_deg": 85.5135,
      "mean_anomaly_deg": 274.6006,
      "mean_motion_rev_day": 15.08833484
    },
    {
      "epoch": "2026-04-23T11:26:41.911008Z",
      "apogee_km": 540.7061135061931,
      "perigee_km": 538.7902743805816,
      "latitude_deg": 3.1949227914609686e-05,
      "longitude_deg": -150.1341551404515,
      "height_km": 540.5964409955302,
      "semi_major_axis_km": 6917.885193943387,
      "eccentricity": 0.00013847,
      "inclination_deg": 53.2178,
      "raan_deg": 233.064,
      "arg_perigee_deg": 87.1598,
      "mean_anomaly_deg": 272.9553,
      "mean_motion_rev_day": 15.08838428
    },
    {
      "epoch": "2026-04-24T19:14:24.052128Z",
      "apogee_km": 540.5206790398788,
      "perigee_km": 538.9447883145485,
      "latitude_deg": 3.91944486369057e-05,
      "longitude_deg": 85.68498473302623,
      "height_km": 540.5932466054347,
      "semi_major_axis_km": 6917.869733677214,
      "eccentricity": 0.0001139,
      "inclination_deg": 53.2176,
      "raan_deg": 227.1145,
      "arg_perigee_deg": 87.4166,
      "mean_anomaly_deg": 272.6957,
      "mean_motion_rev_day": 15.08843486
    },
    {
      "epoch": "2026-04-25T17:29:48.293088Z",
      "apogee_km": 540.4727855008214,
      "perigee_km": 539.0034288280604,
      "latitude_deg": -3.266235934489934e-05,
      "longitude_deg": 106.75797551564601,
      "height_km": 540.5742219922538,
      "semi_major_axis_km": 6917.87510716444,
      "eccentricity": 0.0001062,
      "inclination_deg": 53.2173,
      "raan_deg": 222.9526,
      "arg_perigee_deg": 85.3156,
      "mean_anomaly_deg": 274.7957,
      "mean_motion_rev_day": 15.08841728
    },
    {
      "epoch": "2026-04-26T18:55:59.180160Z",
      "apogee_km": 540.6303644735735,
      "perigee_km": 538.8669954137567,
      "latitude_deg": 1.5584006325669696e-05,
      "longitude_deg": 79.40961492658855,
      "height_km": 540.58325235962,
      "semi_major_axis_km": 6917.885679943665,
      "eccentricity": 0.00012745,
      "inclination_deg": 53.2172,
      "raan_deg": 218.1942,
      "arg_perigee_deg": 86.0176,
      "mean_anomaly_deg": 274.0962,
      "mean_motion_rev_day": 15.08838269
    },
    {
      "epoch": "2026-04-27T14:00:36.713664Z",
      "apogee_km": 540.5697167766948,
      "perigee_km": 538.9135766286754,
      "latitude_deg": 2.0177621210856488e-05,
      "longitude_deg": 148.90166098395977,
      "height_km": 540.5654299449178,
      "semi_major_axis_km": 6917.878646702685,
      "eccentricity": 0.0001197,
      "inclination_deg": 53.2167,
      "raan_deg": 214.6261,
      "arg_perigee_deg": 85.0065,
      "mean_anomaly_deg": 275.1064,
      "mean_motion_rev_day": 15.0884057
    },
    {
      "epoch": "2026-04-28T13:51:23.929056Z",
      "apogee_km": 540.5256630573922,
      "perigee_km": 538.9663722252153,
      "latitude_deg": -9.163569402724729e-06,
      "longitude_deg": 145.76697026920291,
      "height_km": 540.6811273824567,
      "semi_major_axis_km": 6917.883017641303,
      "eccentricity": 0.0001127,
      "inclination_deg": 53.2167,
      "raan_deg": 210.1675,
      "arg_perigee_deg": 92.8788,
      "mean_anomaly_deg": 267.2333,
      "mean_motion_rev_day": 15.0883914
    },
    {
      "epoch": "2026-04-29T12:06:47.892672Z",
      "apogee_km": 540.5691749225471,
      "perigee_km": 538.9095763800278,
      "latitude_deg": -2.454976050983233e-05,
      "longitude_deg": 166.83976245135779,
      "height_km": 540.5846654161047,
      "semi_major_axis_km": 6917.876375651287,
      "eccentricity": 0.00011995,
      "inclination_deg": 53.2165,
      "raan_deg": 206.0042,
      "arg_perigee_deg": 86.5075,
      "mean_anomaly_deg": 273.6054,
      "mean_motion_rev_day": 15.08841313
    },
    {
      "epoch": "2026-04-30T15:08:20.927328Z",
      "apogee_km": 540.6000835008226,
      "perigee_km": 538.8660501898676,
      "latitude_deg": 2.281096001596206e-05,
      "longitude_deg": 115.28664116543533,
      "height_km": 540.6133104676815,
      "semi_major_axis_km": 6917.870066845345,
      "eccentricity": 0.00012533,
      "inclination_deg": 53.2169,
      "raan_deg": 200.9486,
      "arg_perigee_deg": 88.972,
      "mean_anomaly_deg": 271.1416,
      "mean_motion_rev_day": 15.08843377
    }
  ]
}